[Satellite]
VERSION=1.1
NAME=JCSAT-5A
NICKNAME=JCSAT-5A
TLE1=1 29045U 06010A   15053.51277355 -.00000353  00000-0  10000-3 0  9992
TLE2=2 29045   0.0152 132.7720 0001944 174.8535 161.0866  1.00271350 32500
